{"updated_at":"2026-06-14T09:52:29.553850Z","count":200,"data":[{"NORAD_CAT_ID":"69371","OBJECT_NAME":"STARLINK-37645","OBJECT_ID":"2026-123U","EPOCH":"2026-06-14T04:00:01.998720","TLE_LINE1":"1 69371U 26123U   26165.16668980 -.02033733  00000-0 -81042-2 0  9994","TLE_LINE2":"2 69371  53.1563 256.4792 0000788  78.3299 311.3542 15.88806861  2717"},{"NORAD_CAT_ID":"69372","OBJECT_NAME":"STARLINK-37688","OBJECT_ID":"2026-123V","EPOCH":"2026-06-14T04:00:01.998720","TLE_LINE1":"1 69372U 26123V   26165.16668980 -.01826271  00000-0 -76961-2 0  9995","TLE_LINE2":"2 69372  53.1560 256.4383 0000764  82.5806 326.4960 15.87883658  2715"},{"NORAD_CAT_ID":"69373","OBJECT_NAME":"STARLINK-37685","OBJECT_ID":"2026-123W","EPOCH":"2026-06-14T04:00:01.998720","TLE_LINE1":"1 69373U 26123W   26165.16668980 -.01820327  00000-0 -76961-2 0  9992","TLE_LINE2":"2 69373  53.1559 256.4307 0001008  64.0704 348.6443 15.87804159  2715"},{"NORAD_CAT_ID":"69374","OBJECT_NAME":"STARLINK-37632","OBJECT_ID":"2026-123X","EPOCH":"2026-06-14T04:00:01.998720","TLE_LINE1":"1 69374U 26123X   26165.16668980 -.01844373  00000-0 -78018-2 0  9995","TLE_LINE2":"2 69374  53.1557 256.4234 0001014  67.3475 348.8785 15.87839697  2661"},{"NORAD_CAT_ID":"69375","OBJECT_NAME":"STARLINK-37454","OBJECT_ID":"2026-123Y","EPOCH":"2026-06-14T04:00:01.998720","TLE_LINE1":"1 69375U 26123Y   26165.16668980 -.01817238  00000-0 -76843-2 0  9990","TLE_LINE2":"2 69375  53.1558 256.4089 0000910  81.9525 341.0818 15.87796524  2802"},{"NORAD_CAT_ID":"69376","OBJECT_NAME":"STARLINK-37485","OBJECT_ID":"2026-123Z","EPOCH":"2026-06-14T04:00:01.998720","TLE_LINE1":"1 69376U 26123Z   26165.16668980 -.01827637  00000-0 -77389-2 0  9991","TLE_LINE2":"2 69376  53.1557 256.3997 0000882  81.1415 346.1705 15.87789266  2803"},{"NORAD_CAT_ID":"69377","OBJECT_NAME":"STARLINK-37439","OBJECT_ID":"2026-123AA","EPOCH":"2026-06-14T04:00:01.998720","TLE_LINE1":"1 69377U 26123AA  26165.16668980 -.01818513  00000-0 -70388-2 0  9997","TLE_LINE2":"2 69377  53.1551 256.3375 0000933  86.7073  10.5229 15.89537624  2664"},{"NORAD_CAT_ID":"69378","OBJECT_NAME":"STARLINK-37376","OBJECT_ID":"2026-123AB","EPOCH":"2026-06-14T04:00:01.998720","TLE_LINE1":"1 69378U 26123AB  26165.16668980 -.01796714  00000-0 -72493-2 0  9995","TLE_LINE2":"2 69378  53.1554 256.3567 0001009  68.0110  19.8822 15.88683796  2809"},{"NORAD_CAT_ID":"69379","OBJECT_NAME":"STARLINK-37383","OBJECT_ID":"2026-123AC","EPOCH":"2026-06-14T04:00:01.998720","TLE_LINE1":"1 69379U 26123AC  26165.16668980 -.01819320  00000-0 -70780-2 0  9992","TLE_LINE2":"2 69379  53.1548 256.2932 0000954  80.2091  37.9185 15.89439335  2802"},{"NORAD_CAT_ID":"69380","OBJECT_NAME":"STARLINK-37411","OBJECT_ID":"2026-123AD","EPOCH":"2026-06-14T04:00:01.998720","TLE_LINE1":"1 69380U 26123AD  26165.16668980 -.01814434  00000-0 -73311-2 0  9998","TLE_LINE2":"2 69380  53.1553 256.3414 0001005  63.1126  31.8396 15.88688902  2805"},{"NORAD_CAT_ID":"69381","OBJECT_NAME":"STARLINK-37427","OBJECT_ID":"2026-123AE","EPOCH":"2026-06-14T04:00:01.998720","TLE_LINE1":"1 69381U 26123AE  26165.16668980 -.01773272  00000-0 -68170-2 0  9990","TLE_LINE2":"2 69381  53.1551 256.3066 0001100  72.6572  39.1209 15.89585859  2726"},{"NORAD_CAT_ID":"69382","OBJECT_NAME":"QIANFAN-165","OBJECT_ID":"2026-124A","EPOCH":"2026-06-13T19:09:35.953056","TLE_LINE1":"1 69382U 26124A   26164.79833279  .00000097  00000-0  37879-4 0  9994","TLE_LINE2":"2 69382  88.9991   2.4245 0002400 151.4164 208.7159 14.21216415  1335"},{"NORAD_CAT_ID":"69383","OBJECT_NAME":"QIANFAN-166","OBJECT_ID":"2026-124B","EPOCH":"2026-06-13T19:04:51.753216","TLE_LINE1":"1 69383U 26124B   26164.79504344 -.01966168  00000-0 -99595+0 0  9994","TLE_LINE2":"2 69383  88.9981   2.4246 0000590 340.7303  19.3865 14.20107670  1333"},{"NORAD_CAT_ID":"69384","OBJECT_NAME":"QIANFAN-167","OBJECT_ID":"2026-124C","EPOCH":"2026-06-13T19:06:00.436032","TLE_LINE1":"1 69384U 26124C   26164.79583838  .00000098  00000-0  38081-4 0  9996","TLE_LINE2":"2 69384  88.9980   2.4227 0001890 193.2353 166.8789 14.21602818  1330"},{"NORAD_CAT_ID":"69385","OBJECT_NAME":"QIANFAN-168","OBJECT_ID":"2026-124D","EPOCH":"2026-06-13T19:04:31.063008","TLE_LINE1":"1 69385U 26124D   26164.79480397  .00000099  00000-0  37699-4 0  9998","TLE_LINE2":"2 69385  88.9990   2.4241 0002644 149.7216 210.4128 14.22660974  1331"},{"NORAD_CAT_ID":"69386","OBJECT_NAME":"QIANFAN-169","OBJECT_ID":"2026-124E","EPOCH":"2026-06-13T19:01:12.668736","TLE_LINE1":"1 69386U 26124E   26164.79250774 -.01713149  00000-0 -87798+0 0  9993","TLE_LINE2":"2 69386  88.9978   2.4236 0008169 202.3146 157.7690 14.19567789  1331"},{"NORAD_CAT_ID":"69387","OBJECT_NAME":"QIANFAN-170","OBJECT_ID":"2026-124F","EPOCH":"2026-06-13T19:02:03.247296","TLE_LINE1":"1 69387U 26124F   26164.79309314 -.02088106  00000-0 -10304+1 0  9998","TLE_LINE2":"2 69387  88.9974   2.4249 0003867 117.7396 242.4187 14.21745552  1330"},{"NORAD_CAT_ID":"69388","OBJECT_NAME":"QIANFAN-171","OBJECT_ID":"2026-124G","EPOCH":"2026-06-13T18:59:02.743008","TLE_LINE1":"1 69388U 26124G   26164.79100397 -.01724011  00000-0 -86631+0 0  9995","TLE_LINE2":"2 69388  88.9981   2.4235 0022197 187.5923 172.4935 14.20530017  1332"},{"NORAD_CAT_ID":"69389","OBJECT_NAME":"QIANFAN-172","OBJECT_ID":"2026-124H","EPOCH":"2026-06-13T20:34:16.387104","TLE_LINE1":"1 69389U 26124H   26164.85713411 -.01443543  00000-0 -61077+0 0  9995","TLE_LINE2":"2 69389  88.9977   2.4156 0003179 174.9675 185.1552 14.29008880  1347"},{"NORAD_CAT_ID":"69390","OBJECT_NAME":"QIANFAN-173","OBJECT_ID":"2026-124J","EPOCH":"2026-06-13T19:01:00.716160","TLE_LINE1":"1 69390U 26124J   26164.79236940  .00000103  00000-0  37327-4 0  9991","TLE_LINE2":"2 69390  88.9984   2.4233 0002523 170.3122 189.8120 14.25636559  1339"},{"NORAD_CAT_ID":"69391","OBJECT_NAME":"QIANFAN-174","OBJECT_ID":"2026-124K","EPOCH":"2026-06-14T00:03:45.274176","TLE_LINE1":"1 69391U 26124K   26165.00260734  .00000102  00000-0  36818-4 0  9998","TLE_LINE2":"2 69391  88.9983   2.3990 0002366 170.0899 190.0341 14.25618199  1363"},{"NORAD_CAT_ID":"69392","OBJECT_NAME":"QIANFAN-175","OBJECT_ID":"2026-124L","EPOCH":"2026-06-14T01:44:43.085760","TLE_LINE1":"1 69392U 26124L   26165.07272090  .00000101  00000-0  36310-4 0  9990","TLE_LINE2":"2 69392  88.9984   2.3909 0002750 177.2611 182.8598 14.25625629  1373"},{"NORAD_CAT_ID":"69393","OBJECT_NAME":"QIANFAN-176","OBJECT_ID":"2026-124M","EPOCH":"2026-06-14T05:06:36.861696","TLE_LINE1":"1 69393U 26124M   26165.21292664  .00000098  00000-0  35244-4 0  9996","TLE_LINE2":"2 69393  88.9984   2.3749 0001868 176.6813 183.4393 14.25634295  1393"},{"NORAD_CAT_ID":"69394","OBJECT_NAME":"QIANFAN-177","OBJECT_ID":"2026-124N","EPOCH":"2026-06-14T03:24:50.959008","TLE_LINE1":"1 69394U 26124N   26165.14225647  .00000017  00000-0  10587-5 0  9991","TLE_LINE2":"2 69394  88.9981   2.3827 0002864 162.1591 197.9704 14.25688810  1385"},{"NORAD_CAT_ID":"69395","OBJECT_NAME":"QIANFAN-178","OBJECT_ID":"2026-124P","EPOCH":"2026-06-14T03:25:02.002656","TLE_LINE1":"1 69395U 26124P   26165.14238429  .00000098  00000-0  35372-4 0  9991","TLE_LINE2":"2 69395  88.9983   2.3828 0002302 167.4935 192.6316 14.25625996  1383"},{"NORAD_CAT_ID":"69396","OBJECT_NAME":"QIANFAN-179","OBJECT_ID":"2026-124Q","EPOCH":"2026-06-13T20:38:29.185728","TLE_LINE1":"1 69396U 26124Q   26164.86006002 -.01971323  00000-0 -94572+0 0  9993","TLE_LINE2":"2 69396  88.9978   2.4153 0004353 107.3109 252.8559 14.22997940  1346"},{"NORAD_CAT_ID":"69397","OBJECT_NAME":"QIANFAN-180","OBJECT_ID":"2026-124R","EPOCH":"2026-06-14T00:01:53.851008","TLE_LINE1":"1 69397U 26124R   26165.00131772  .00000103  00000-0  36823-4 0  9990","TLE_LINE2":"2 69397  88.9984   2.3989 0002341 170.3819 189.7420 14.26489166  1360"},{"NORAD_CAT_ID":"69398","OBJECT_NAME":"QIANFAN-181","OBJECT_ID":"2026-124S","EPOCH":"2026-06-14T03:36:53.226720","TLE_LINE1":"1 69398U 26124S   26165.15061605  .00000093  00000-0  36215-4 0  9997","TLE_LINE2":"2 69398  88.9983   2.3842 0002119 140.0514 220.0833 14.21115081  1383"},{"NORAD_CAT_ID":"69399","OBJECT_NAME":"QIANFAN-182","OBJECT_ID":"2026-124T","EPOCH":"2026-06-13T19:02:53.132928","TLE_LINE1":"1 69399U 26124T   26164.79367052  .00000100  00000-0  37156-4 0  9996","TLE_LINE2":"2 69399  88.9961   2.4186 0003044 159.9795 200.1517 14.24123720  1335"},{"NORAD_CAT_ID":"69400","OBJECT_NAME":"CZ-6A R/B","OBJECT_ID":"2026-124U","EPOCH":"2026-06-14T03:29:40.264224","TLE_LINE1":"1 69400U 26124U   26165.14560491  .00000299  00000-0  57518-4 0  9994","TLE_LINE2":"2 69400  89.0257   2.3214 0100172  72.1823 289.0285 14.57302527  1414"}]}