OBJECT_NAME,OBJECT_ID,EPOCH,MEAN_MOTION,ECCENTRICITY,INCLINATION,RA_OF_ASC_NODE,ARG_OF_PERICENTER,MEAN_ANOMALY,EPHEMERIS_TYPE,CLASSIFICATION_TYPE,NORAD_CAT_ID,ELEMENT_SET_NO,REV_AT_EPOCH,BSTAR,MEAN_MOTION_DOT,MEAN_MOTION_DDOT
STARLINK-37645,2026-123U,2026-06-14T04:00:01.998720,15.88806861,.0000788,53.1563,256.4792,78.3299,311.3542,0,U,69371,999,271,-.81042E-2,-.2033733E-1,0
STARLINK-37688,2026-123V,2026-06-14T04:00:01.998720,15.87883658,.0000764,53.1560,256.4383,82.5806,326.4960,0,U,69372,999,271,-.76961E-2,-.1826271E-1,0
STARLINK-37685,2026-123W,2026-06-14T04:00:01.998720,15.87804159,.0001008,53.1559,256.4307,64.0704,348.6443,0,U,69373,999,271,-.76961E-2,-.1820327E-1,0
STARLINK-37632,2026-123X,2026-06-14T04:00:01.998720,15.87839697,.0001014,53.1557,256.4234,67.3475,348.8785,0,U,69374,999,266,-.78018E-2,-.1844373E-1,0
STARLINK-37454,2026-123Y,2026-06-14T04:00:01.998720,15.87796524,.000091,53.1558,256.4089,81.9525,341.0818,0,U,69375,999,280,-.76843E-2,-.1817238E-1,0
STARLINK-37485,2026-123Z,2026-06-14T04:00:01.998720,15.87789266,.0000882,53.1557,256.3997,81.1415,346.1705,0,U,69376,999,280,-.77389E-2,-.1827637E-1,0
STARLINK-37439,2026-123AA,2026-06-14T04:00:01.998720,15.89537624,.0000933,53.1551,256.3375,86.7073,10.5229,0,U,69377,999,266,-.70388E-2,-.1818513E-1,0
STARLINK-37376,2026-123AB,2026-06-14T04:00:01.998720,15.88683796,.0001009,53.1554,256.3567,68.0110,19.8822,0,U,69378,999,280,-.72493E-2,-.1796714E-1,0
STARLINK-37383,2026-123AC,2026-06-14T04:00:01.998720,15.89439335,.0000954,53.1548,256.2932,80.2091,37.9185,0,U,69379,999,280,-.7078E-2,-.181932E-1,0
STARLINK-37411,2026-123AD,2026-06-14T04:00:01.998720,15.88688902,.0001005,53.1553,256.3414,63.1126,31.8396,0,U,69380,999,280,-.73311E-2,-.1814434E-1,0
STARLINK-37427,2026-123AE,2026-06-14T04:00:01.998720,15.89585859,.00011,53.1551,256.3066,72.6572,39.1209,0,U,69381,999,272,-.6817E-2,-.1773272E-1,0
QIANFAN-165,2026-124A,2026-06-13T19:09:35.953056,14.21216415,.00024,88.9991,2.4245,151.4164,208.7159,0,U,69382,999,133,.37879E-4,.97E-6,0
QIANFAN-166,2026-124B,2026-06-13T19:04:51.753216,14.20107670,.00005903,88.9981,2.4246,340.7303,19.3865,0,U,69383,999,133,-.99594861E+0,-.1966168E-1,0
QIANFAN-167,2026-124C,2026-06-13T19:06:00.436032,14.21602818,.000189,88.9980,2.4227,193.2353,166.8789,0,U,69384,999,133,.38081E-4,.98E-6,0
QIANFAN-168,2026-124D,2026-06-13T19:04:31.063008,14.22660974,.0002644,88.9990,2.4241,149.7216,210.4128,0,U,69385,999,133,.37699E-4,.99E-6,0
QIANFAN-169,2026-124E,2026-06-13T19:01:12.668736,14.19567789,.00081693,88.9978,2.4236,202.3146,157.7690,0,U,69386,999,133,-.87798131E+0,-.1713149E-1,0
QIANFAN-170,2026-124F,2026-06-13T19:02:03.247296,14.21745552,.00038669,88.9974,2.4249,117.7396,242.4187,0,U,69387,999,133,-.10304016E+1,-.2088106E-1,0
QIANFAN-171,2026-124G,2026-06-13T18:59:02.743008,14.20530017,.0022197,88.9981,2.4235,187.5923,172.4935,0,U,69388,999,133,-.86631143E+0,-.1724011E-1,0
QIANFAN-172,2026-124H,2026-06-13T20:34:16.387104,14.29008880,.0003179,88.9977,2.4156,174.9675,185.1552,0,U,69389,999,134,-.61076877E+0,-.1443543E-1,0
QIANFAN-173,2026-124J,2026-06-13T19:01:00.716160,14.25636559,.00025232,88.9984,2.4233,170.3122,189.8120,0,U,69390,999,133,.37327053E-4,.103E-5,0
QIANFAN-174,2026-124K,2026-06-14T00:03:45.274176,14.25618199,.0002366,88.9983,2.3990,170.0899,190.0341,0,U,69391,999,136,.36818E-4,.102E-5,0
QIANFAN-175,2026-124L,2026-06-14T01:44:43.085760,14.25625629,.000275,88.9984,2.3909,177.2611,182.8598,0,U,69392,999,137,.3631E-4,.101E-5,0
QIANFAN-176,2026-124M,2026-06-14T05:06:36.861696,14.25634295,.0001868,88.9984,2.3749,176.6813,183.4393,0,U,69393,999,139,.35244E-4,.98E-6,0
QIANFAN-177,2026-124N,2026-06-14T03:24:50.959008,14.25688810,.0002864,88.9981,2.3827,162.1591,197.9704,0,U,69394,999,138,.10587E-5,.17E-6,0
QIANFAN-178,2026-124P,2026-06-14T03:25:02.002656,14.25625996,.0002302,88.9983,2.3828,167.4935,192.6316,0,U,69395,999,138,.35372E-4,.98E-6,0
QIANFAN-179,2026-124Q,2026-06-13T20:38:29.185728,14.22997940,.00043527,88.9978,2.4153,107.3109,252.8559,0,U,69396,999,134,-.94571829E+0,-.1971323E-1,0
QIANFAN-180,2026-124R,2026-06-14T00:01:53.851008,14.26489166,.0002341,88.9984,2.3989,170.3819,189.7420,0,U,69397,999,136,.36823E-4,.103E-5,0
QIANFAN-181,2026-124S,2026-06-14T03:36:53.226720,14.21115081,.0002119,88.9983,2.3842,140.0514,220.0833,0,U,69398,999,138,.36215E-4,.93E-6,0
QIANFAN-182,2026-124T,2026-06-13T19:02:53.132928,14.24123720,.0003044,88.9961,2.4186,159.9795,200.1517,0,U,69399,999,133,.37156E-4,.1E-5,0
CZ-6A R/B,2026-124U,2026-06-14T03:29:40.264224,14.57302527,.0100172,89.0257,2.3214,72.1823,289.0285,0,U,69400,999,141,.57518E-4,.299E-5,0
